{
  "type": "FeatureCollection",
  "features": [
    {
      "type": "Feature",
      "properties": {
        "norad_id": 34540,
        "name": "IRIDIUM 33 DEB",
        "group": "iridium-33-debris",
        "lat": -55.50851578118799,
        "lon": 130.0379000585513,
        "alt_km": 652.6836871818741,
        "timestamp": "2025-12-19T04:59:48.691653+00:00",
        "meta_object_name": "IRIDIUM 33 DEB",
        "meta_object_id": "1997-051JH",
        "meta_epoch": "2025-12-18T08:57:29.352960",
        "meta_mean_motion": 14.75435184,
        "meta_eccentricity": 0.00173002,
        "meta_inclination": 86.3103,
        "meta_ra_of_asc_node": 305.0304,
        "meta_arg_of_pericenter": 139.8381,
        "meta_mean_anomaly": 343.587,
        "meta_ephemeris_type": 0,
        "meta_classification_type": "U",
        "meta_norad_cat_id": 34540,
        "meta_element_set_no": 999,
        "meta_rev_at_epoch": 89104,
        "meta_bstar": 0.0013410572,
        "meta_mean_motion_dot": 9.16e-05,
        "meta_mean_motion_ddot": 0,
        "tle_line1": "1 34540U 97051JH  25352.37325640  .00009160  00000+0  13411-2 0  9992",
        "tle_line2": "2 34540  86.3103 305.0304 0017300 139.8381 343.5870 14.75435184891042"
      },
      "geometry": {
        "type": "Point",
        "coordinates": [
          130.0379000585513,
          -55.50851578118799
        ]
      }
    },
    {
      "type": "Feature",
      "properties": {
        "norad_id": 34648,
        "name": "IRIDIUM 33 DEB",
        "group": "iridium-33-debris",
        "lat": -19.354069494415572,
        "lon": -81.93653506715785,
        "alt_km": 795.6410050343147,
        "timestamp": "2025-12-19T04:59:48.691665+00:00",
        "meta_object_name": "IRIDIUM 33 DEB",
        "meta_object_id": "1997-051JZ",
        "meta_epoch": "2025-12-18T13:46:37.352352",
        "meta_mean_motion": 14.1166623,
        "meta_eccentricity": 0.01808845,
        "meta_inclination": 86.3904,
        "meta_ra_of_asc_node": 279.59,
        "meta_arg_of_pericenter": 280.6676,
        "meta_mean_anomaly": 77.4184,
        "meta_ephemeris_type": 0,
        "meta_classification_type": "U",
        "meta_norad_cat_id": 34648,
        "meta_element_set_no": 999,
        "meta_rev_at_epoch": 85043,
        "meta_bstar": 0.0055375481,
        "meta_mean_motion_dot": 0.00011772,
        "meta_mean_motion_ddot": 0,
        "tle_line1": "1 34648U 97051JZ  25352.57404343  .00011772  00000+0  55375-2 0  9998",
        "tle_line2": "2 34648  86.3904 279.5900 0180884 280.6676  77.4184 14.11666230850434"
      },
      "geometry": {
        "type": "Point",
        "coordinates": [
          -81.93653506715785,
          -19.354069494415572
        ]
      }
    },
    {
      "type": "Feature",
      "properties": {
        "norad_id": 34651,
        "name": "IRIDIUM 33 DEB",
        "group": "iridium-33-debris",
        "lat": 8.199242993940976,
        "lon": 138.3623988028209,
        "alt_km": 909.1318272716699,
        "timestamp": "2025-12-19T04:59:48.691676+00:00",
        "meta_object_name": "IRIDIUM 33 DEB",
        "meta_object_id": "1997-051KC",
        "meta_epoch": "2025-12-18T20:32:10.493664",
        "meta_mean_motion": 14.25912214,
        "meta_eccentricity": 0.01422304,
        "meta_inclination": 86.2828,
        "meta_ra_of_asc_node": 137.9757,
        "meta_arg_of_pericenter": 184.5994,
        "meta_mean_anomaly": 175.3902,
        "meta_ephemeris_type": 0,
        "meta_classification_type": "U",
        "meta_norad_cat_id": 34651,
        "meta_element_set_no": 999,
        "meta_rev_at_epoch": 85983,
        "meta_bstar": 0.0024078019,
        "meta_mean_motion_dot": 6.398e-05,
        "meta_mean_motion_ddot": 0,
        "tle_line1": "1 34651U 97051KC  25352.85567701  .00006398  00000+0  24078-2 0  9995",
        "tle_line2": "2 34651  86.2828 137.9757 0142230 184.5994 175.3902 14.25912214859837"
      },
      "geometry": {
        "type": "Point",
        "coordinates": [
          138.3623988028209,
          8.199242993940976
        ]
      }
    },
    {
      "type": "Feature",
      "properties": {
        "norad_id": 34652,
        "name": "IRIDIUM 33 DEB",
        "group": "iridium-33-debris",
        "lat": -1.5187071951981068,
        "lon": 157.21854173970362,
        "alt_km": 690.635433799921,
        "timestamp": "2025-12-19T04:59:48.691686+00:00",
        "meta_object_name": "IRIDIUM 33 DEB",
        "meta_object_id": "1997-051KD",
        "meta_epoch": "2025-12-18T17:14:29.252832",
        "meta_mean_motion": 14.62111337,
        "meta_eccentricity": 0.0025564,
        "meta_inclination": 86.3309,
        "meta_ra_of_asc_node": 337.3391,
        "meta_arg_of_pericenter": 276.3765,
        "meta_mean_anomaly": 208.8285,
        "meta_ephemeris_type": 0,
        "meta_classification_type": "U",
        "meta_norad_cat_id": 34652,
        "meta_element_set_no": 999,
        "meta_rev_at_epoch": 88571,
        "meta_bstar": 0.00069226917,
        "meta_mean_motion_dot": 3.516e-05,
        "meta_mean_motion_ddot": 0,
        "tle_line1": "1 34652U 97051KD  25352.71839413  .00003516  00000+0  69227-3 0  9998",
        "tle_line2": "2 34652  86.3309 337.3391 0025564 276.3765 208.8285 14.62111337885719"
      },
      "geometry": {
        "type": "Point",
        "coordinates": [
          157.21854173970362,
          -1.5187071951981068
        ]
      }
    },
    {
      "type": "Feature",
      "properties": {
        "norad_id": 34690,
        "name": "IRIDIUM 33 DEB",
        "group": "iridium-33-debris",
        "lat": -61.95070987556112,
        "lon": -138.99192578293574,
        "alt_km": 720.4861577387364,
        "timestamp": "2025-12-19T04:59:48.691696+00:00",
        "meta_object_name": "IRIDIUM 33 DEB",
        "meta_object_id": "1997-051KM",
        "meta_epoch": "2025-12-18T10:00:51.155136",
        "meta_mean_motion": 14.55116306,
        "meta_eccentricity": 0.00101708,
        "meta_inclination": 86.378,
        "meta_ra_of_asc_node": 34.5242,
        "meta_arg_of_pericenter": 10.8179,
        "meta_mean_anomaly": 50.7531,
        "meta_ephemeris_type": 0,
        "meta_classification_type": "U",
        "meta_norad_cat_id": 34690,
        "meta_element_set_no": 999,
        "meta_rev_at_epoch": 88177,
        "meta_bstar": 0.00034845824,
        "meta_mean_motion_dot": 1.525e-05,
        "meta_mean_motion_ddot": 0,
        "tle_line1": "1 34690U 97051KM  25352.41725874  .00001525  00000+0  34846-3 0  9999",
        "tle_line2": "2 34690  86.3780  34.5242 0010170  10.8179  50.7531 14.55116306881775"
      },
      "geometry": {
        "type": "Point",
        "coordinates": [
          -138.99192578293574,
          -61.95070987556112
        ]
      }
    },
    {
      "type": "Feature",
      "properties": {
        "norad_id": 34693,
        "name": "IRIDIUM 33 DEB",
        "group": "iridium-33-debris",
        "lat": -22.379709725775484,
        "lon": 122.1317508750992,
        "alt_km": 490.98420202652596,
        "timestamp": "2025-12-19T04:59:48.691707+00:00",
        "meta_object_name": "IRIDIUM 33 DEB",
        "meta_object_id": "1997-051KQ",
        "meta_epoch": "2025-12-18T20:30:35.333568",
        "meta_mean_motion": 15.29367567,
        "meta_eccentricity": 0.0012164,
        "meta_inclination": 86.305,
        "meta_ra_of_asc_node": 300.783,
        "meta_arg_of_pericenter": 41.8212,
        "meta_mean_anomaly": 14.7661,
        "meta_ephemeris_type": 0,
        "meta_classification_type": "U",
        "meta_norad_cat_id": 34693,
        "meta_element_set_no": 999,
        "meta_rev_at_epoch": 89008,
        "meta_bstar": 0.0035831985,
        "meta_mean_motion_dot": 0.00103466,
        "meta_mean_motion_ddot": 0,
        "tle_line1": "1 34693U 97051KQ  25352.85457562  .00103466  00000+0  35832-2 0  9998",
        "tle_line2": "2 34693  86.3050 300.7830 0012164  41.8212  14.7661 15.29367567890083"
      },
      "geometry": {
        "type": "Point",
        "coordinates": [
          122.1317508750992,
          -22.379709725775484
        ]
      }
    },
    {
      "type": "Feature",
      "properties": {
        "norad_id": 34696,
        "name": "IRIDIUM 33 DEB",
        "group": "iridium-33-debris",
        "lat": -77.26774168092963,
        "lon": -138.30820137075082,
        "alt_km": 702.552293168058,
        "timestamp": "2025-12-19T04:59:48.691720+00:00",
        "meta_object_name": "IRIDIUM 33 DEB",
        "meta_object_id": "1997-051KT",
        "meta_epoch": "2025-12-18T13:46:17.310144",
        "meta_mean_motion": 14.65374938,
        "meta_eccentricity": 0.00738622,
        "meta_inclination": 86.1844,
        "meta_ra_of_asc_node": 24.8077,
        "meta_arg_of_pericenter": 147.8205,
        "meta_mean_anomaly": 4.7215,
        "meta_ephemeris_type": 0,
        "meta_classification_type": "U",
        "meta_norad_cat_id": 34696,
        "meta_element_set_no": 999,
        "meta_rev_at_epoch": 86758,
        "meta_bstar": 0.0032443033,
        "meta_mean_motion_dot": 0.00018298,
        "meta_mean_motion_ddot": 0,
        "tle_line1": "1 34696U 97051KT  25352.57381146  .00018298  00000+0  32443-2 0  9997",
        "tle_line2": "2 34696  86.1844  24.8077 0073862 147.8205   4.7215 14.65374938867585"
      },
      "geometry": {
        "type": "Point",
        "coordinates": [
          -138.30820137075082,
          -77.26774168092963
        ]
      }
    }
  ]
}